{"type":"FeatureCollection","name":"Peajes RAP-E Region Central","features":[{"type":"Feature","properties":{"id":"81","name":"CASABLANCA","sector":"Bogotá - Ubaté","direction":"Sur – Norte // Norte – Sur","operator":"INVIAS","rate_I":12100.0,"rate_II":12900.0,"rate_III":33500.0,"rate_IV":41500.0,"rate_V":48600.0,"rate_VI":0.0,"rate_VII":0.0},"geometry":{"type":"Point","coordinates":[-73.91282774399997,5.104394194000065]}},{"type":"Feature","properties":{"id":"113","name":"SÁCHICA","sector":"Sáchica - Tunja","direction":"Ambos sentidos de circulación","operator":"INVIAS","rate_I":12200.0,"rate_II":13000.0,"rate_III":27900.0,"rate_IV":35400.0,"rate_V":39800.0,"rate_VI":0.0,"rate_VII":0.0},"geometry":{"type":"Point","coordinates":[-73.50115777799994,5.557684876000053]}},{"type":"Feature","properties":{"id":"116","name":"ARCABUCO","sector":"Barbosa - Tunja","direction":"Ambos sentidos de circulación","operator":"INVIAS","rate_I":12200.0,"rate_II":13000.0,"rate_III":27900.0,"rate_IV":35400.0,"rate_V":39800.0,"rate_VI":0.0,"rate_VII":0.0},"geometry":{"type":"Point","coordinates":[-73.47761993899996,5.795024657000056]}},{"type":"Feature","properties":{"id":"117","name":"EL CRUCERO","sector":"Sogamoso - El Crucero","direction":"Ambos sentidos de circulación","operator":"INVIAS","rate_I":12200.0,"rate_II":13000.0,"rate_III":27900.0,"rate_IV":35400.0,"rate_V":39800.0,"rate_VI":0.0,"rate_VII":0.0},"geometry":{"type":"Point","coordinates":[-72.92125203099994,5.631278507000047]}},{"type":"Feature","properties":{"id":"112","name":"PUERTO TRIUNFO","sector":"Santuario - Cruce Ruta 45 (Caño Alegre)","direction":"Sur – Norte","operator":"INVIAS","rate_I":17900.0,"rate_II":27900.0,"rate_III":24400.0,"rate_IV":30300.0,"rate_V":60600.0,"rate_VI":86200.0,"rate_VII":86200.0},"geometry":{"type":"Point","coordinates":[-74.61139540599999,5.8725989140000365]}},{"type":"Feature","properties":{"id":"82","name":"SABOYÁ","sector":"Ubaté - Puente Nacional","direction":"Ambos sentidos de circulación","operator":"INVÍAS","rate_I":12100.0,"rate_II":12900.0,"rate_III":33500.0,"rate_IV":41500.0,"rate_V":48600.0,"rate_VI":0.0,"rate_VII":0.0},"geometry":{"type":"Point","coordinates":[-73.74466587899997,5.727864796000063]}},{"type":"Feature","properties":{"id":"94","name":"BICENTENARIO","sector":"Honda - Villeta","direction":"Ambos sentido de circulación","operator":"INVIAS","rate_I":13000.0,"rate_II":17000.0,"rate_III":39600.0,"rate_IV":48000.0,"rate_V":55700.0,"rate_VI":0.0,"rate_VII":0.0},"geometry":{"type":"Point","coordinates":[-74.68461734999994,5.20310293600005]}},{"type":"Feature","properties":{"id":"108","name":"ARMERO","sector":"San Gil - Bucaramanga","direction":"","operator":"Por Definir","rate_I":13700.0,"rate_II":14800.0,"rate_III":15200.0,"rate_IV":15800.0,"rate_V":33600.0,"rate_VI":45900.0,"rate_VII":63500.0},"geometry":{"type":"Point","coordinates":[-74.91442599999993,4.958352000000048]}},{"type":"Feature","properties":{"id":"151","name":"COCORA","sector":"","direction":"","operator":"Por Definir","rate_I":14200.0,"rate_II":15500.0,"rate_III":35900.0,"rate_IV":47800.0,"rate_V":52800.0,"rate_VI":0.0,"rate_VII":0.0},"geometry":{"type":"Point","coordinates":[-75.28549999999996,4.405747000000076]}},{"type":"Feature","properties":{"id":"100","name":"SOPÓ","sector":"Meusa","direction":"Sur - Norte","operator":"PERIMETRAL ORIENTAL DE BOGOTÁ S.A.S","rate_I":12300.0,"rate_II":19200.0,"rate_III":32200.0,"rate_IV":47400.0,"rate_V":64600.0,"rate_VI":65300.0,"rate_VII":0.0},"geometry":{"type":"Point","coordinates":[-73.93608399999994,4.841656000000057]}},{"type":"Feature","properties":{"id":"63","name":"BRISAS","sector":"Mediacanoa - Ansermanuevo","direction":"(Aplica en ambos sentidos)","operator":"Concesión Alto Magdalena SAS","rate_I":6400.0,"rate_II":20500.0,"rate_III":28000.0,"rate_IV":37400.0,"rate_V":53200.0,"rate_VI":85600.0,"rate_VII":97900.0},"geometry":{"type":"Point","coordinates":[-74.63972599999994,5.458545000000072]}},{"type":"Feature","properties":{"id":"69","name":"GUATAQUÍ","sector":"Tramo que cubre la via Guataquí - Cambao - Honda","direction":"Aplica en ambos sentidos","operator":"Concesión Alto Magdalena","rate_I":12800.0,"rate_II":17800.0,"rate_III":24400.0,"rate_IV":32600.0,"rate_V":46100.0,"rate_VI":74600.0,"rate_VII":85200.0},"geometry":{"type":"Point","coordinates":[-74.79731899999996,4.56443500000006]}},{"type":"Feature","properties":{"id":"57","name":"NARANJAL","sector":"Bogotá (El Portal) - Villavicencio","direction":"Occidente – Oriente // Oriente – Occidente","operator":"COVIANDINA S.A.S.","rate_I":14100.0,"rate_II":36500.0,"rate_III":27500.0,"rate_IV":53900.0,"rate_V":62700.0,"rate_VI":72300.0,"rate_VII":80300.0},"geometry":{"type":"Point","coordinates":[-73.83480799999995,4.2798720000000685]}},{"type":"Feature","properties":{"id":"53","name":"CHINAUTA","sector":"Girardot - Silvania - Bogotá (Bosa)","direction":"Sur - Norte // Norte - Sur","operator":"Concesión Vía 40 Express","rate_I":13300.0,"rate_II":14900.0,"rate_III":31500.0,"rate_IV":51100.0,"rate_V":58600.0,"rate_VI":0.0,"rate_VII":0.0},"geometry":{"type":"Point","coordinates":[-74.50010699999996,4.269378000000074]}},{"type":"Feature","properties":{"id":"70","name":"CAMBAO","sector":"San Gil - Bucaramanga","direction":"Aplica en ambos sentidos","operator":"Concesión Alto Magdalena","rate_I":12800.0,"rate_II":17800.0,"rate_III":24400.0,"rate_IV":32600.0,"rate_V":46100.0,"rate_VI":74600.0,"rate_VII":85200.0},"geometry":{"type":"Point","coordinates":[-74.71909399999998,4.946412000000066]}},{"type":"Feature","properties":{"id":"62","name":"ALVARADO","sector":"La Victoria - Cartago - Cerritos","direction":"Norte-Sur -  y -  Sur-Norte","operator":"Concesionaria Alternativas Viales  S.A.S","rate_I":13700.0,"rate_II":14600.0,"rate_III":15200.0,"rate_IV":15900.0,"rate_V":33500.0,"rate_VI":45900.0,"rate_VII":49700.0},"geometry":{"type":"Point","coordinates":[-74.99166099999997,4.507609000000059]}},{"type":"Feature","properties":{"id":"96","name":"RÍO BOGOTÁ","sector":"Los Alpes - Madrid - Bogotá (Rio Bogotá)","direction":"Oriente  - Occidente Bogotá  -  Faca","operator":"INVIAS","rate_I":11800.0,"rate_II":17600.0,"rate_III":15400.0,"rate_IV":20300.0,"rate_V":34400.0,"rate_VI":46400.0,"rate_VII":50200.0},"geometry":{"type":"Point","coordinates":[-74.17934399999996,4.698700000000031]}},{"type":"Feature","properties":{"id":"56","name":"BOQUERÓN II","sector":"Río Negro - San Alberto","direction":"Occidente – Oriente // Oriente – Occidente","operator":"COVIANDINA S.A.S.","rate_I":16500.0,"rate_II":48500.0,"rate_III":24500.0,"rate_IV":64100.0,"rate_V":72300.0,"rate_VI":80300.0,"rate_VII":96200.0},"geometry":{"type":"Point","coordinates":[-74.05032999999997,4.454584000000068]}},{"type":"Feature","properties":{"id":"118","name":"IRACÁ","sector":"Ye de Granada - Paso por el Puente sobre el Río Ocoa","direction":"Sur","operator":"Concesión Autopistas de los Llanos","rate_I":13100.0,"rate_II":25300.0,"rate_III":19200.0,"rate_IV":33100.0,"rate_V":48800.0,"rate_VI":64500.0,"rate_VII":70100.0},"geometry":{"type":"Point","coordinates":[-73.70642099999998,3.6330370000000585]}},{"type":"Feature","properties":{"id":"95","name":"EL CORZO","sector":"El Corzo - Madrid","direction":"Occidente - Oriente Faca  - Bogota","operator":"INVIAS","rate_I":11800.0,"rate_II":17600.0,"rate_III":15400.0,"rate_IV":20300.0,"rate_V":34400.0,"rate_VI":46400.0,"rate_VII":50200.0},"geometry":{"type":"Point","coordinates":[-74.29114499999997,4.748722000000043]}},{"type":"Feature","properties":{"id":"162","name":"GUAYABAL","sector":"Guayabal de Síquima - Cambao","direction":"Norte - occidente // occidente - norte","operator":"CONCESIÓN PANAMERICANA","rate_I":12400.0,"rate_II":16800.0,"rate_III":14100.0,"rate_IV":19600.0,"rate_V":35300.0,"rate_VI":45700.0,"rate_VII":55000.0},"geometry":{"type":"Point","coordinates":[-74.48318539999997,4.883413076000068]}},{"type":"Feature","properties":{"id":"79","name":"ANDES","sector":"Bogotá-La Caro-Tunja","direction":"Sur Norte Aplica Únicamente saliendo de Bogotá","operator":"CONCESIÓN ACCENORTE","rate_I":11100.0,"rate_II":19200.0,"rate_III":12500.0,"rate_IV":27800.0,"rate_V":42100.0,"rate_VI":54000.0,"rate_VII":59900.0},"geometry":{"type":"Point","coordinates":[-74.03308099999998,4.830003000000033]}},{"type":"Feature","properties":{"id":"67","name":"EL PATÁ","sector":"Neiva - Natagaima","direction":"Aplica en ambos sentidos de circulación","operator":"Concesión Autovía Neiva – Girardot","rate_I":15700.0,"rate_II":19400.0,"rate_III":23900.0,"rate_IV":30300.0,"rate_V":46300.0,"rate_VI":58000.0,"rate_VII":67100.0},"geometry":{"type":"Point","coordinates":[-75.20375799999994,3.3937870000000316]}},{"type":"Feature","properties":{"id":"92","name":"SIBERIA","sector":"Villeta - Bogotá","direction":"Ambos sentidos de circulación","operator":"CONCESIÓN SABANA DE OCCIDENTE","rate_I":13800.0,"rate_II":19600.0,"rate_III":16500.0,"rate_IV":21900.0,"rate_V":38300.0,"rate_VI":51200.0,"rate_VII":56300.0},"geometry":{"type":"Point","coordinates":[-74.18502799999999,4.780402000000038]}},{"type":"Feature","properties":{"id":"91","name":"HONDA","sector":"Fresno - Honda","direction":"Norte – Sur  / Sur - Norte","operator":"Concesionaria Alternativas Viales SAS.","rate_I":13700.0,"rate_II":14600.0,"rate_III":15200.0,"rate_IV":15900.0,"rate_V":33500.0,"rate_VI":45900.0,"rate_VII":49700.0},"geometry":{"type":"Point","coordinates":[-74.82028199999996,5.201584000000025]}},{"type":"Feature","properties":{"id":"103","name":"ALBARRACÍN","sector":"Chocontá - Tunja","direction":"Ambos sentidos de circulación","operator":"Concesión Briceño - Tunja - Sogamoso","rate_I":10300.0,"rate_II":11400.0,"rate_III":29300.0,"rate_IV":36200.0,"rate_V":42600.0,"rate_VI":0.0,"rate_VII":0.0},"geometry":{"type":"Point","coordinates":[-73.58350399999995,5.290677000000073]}},{"type":"Feature","properties":{"id":"120","name":"PUENTE AMARILLO","sector":"Cumaral - Barranca de Upía","direction":"Bidireccional","operator":"Concesión Vial del Oriente - COVIORIENTE S.A.S","rate_I":4800.0,"rate_II":16000.0,"rate_III":10200.0,"rate_IV":16000.0,"rate_V":22600.0,"rate_VI":30100.0,"rate_VII":34100.0},"geometry":{"type":"Point","coordinates":[-73.59670299999993,4.194172000000037]}},{"type":"Feature","properties":{"id":"52","name":"CHICORAL","sector":"Variante Chicoral","direction":"Aplica en ambos sentidos de circulación","operator":"Concesionaria San Rafael  S.A.","rate_I":13800.0,"rate_II":15100.0,"rate_III":13800.0,"rate_IV":17900.0,"rate_V":36100.0,"rate_VI":48000.0,"rate_VII":53000.0},"geometry":{"type":"Point","coordinates":[-74.88053099999996,4.2455020000000445]}},{"type":"Feature","properties":{"id":"59","name":"LA LIBERTAD","sector":"Villavicencio - Paso por el Puente sobre el Río La Balsa -Puerto Lopez","direction":"Oriente","operator":"Concesión Autopistas de los Llanos","rate_I":16900.0,"rate_II":32700.0,"rate_III":26200.0,"rate_IV":43100.0,"rate_V":63700.0,"rate_VI":83600.0,"rate_VII":95900.0},"geometry":{"type":"Point","coordinates":[-73.46328699999998,4.056970000000035]}},{"type":"Feature","properties":{"id":"170","name":"PUBENZA","sector":"Girardot - Tocaima","direction":"Norte - Sur // Sur Norte","operator":"CONCESIÓN DEVISAB","rate_I":8500.0,"rate_II":9600.0,"rate_III":10900.0,"rate_IV":14400.0,"rate_V":21000.0,"rate_VI":28000.0,"rate_VII":32200.0},"geometry":{"type":"Point","coordinates":[-74.73146434099993,4.403316390000043]}},{"type":"Feature","properties":{"id":"165","name":"LA TEBAIDA","sector":"Funza - Cota","direction":"Sur - Norte // Norte - Sur","operator":"CONCESIÓN DEVISAB","rate_I":11200.0,"rate_II":13500.0,"rate_III":13500.0,"rate_IV":15600.0,"rate_V":34500.0,"rate_VI":42400.0,"rate_VII":44800.0},"geometry":{"type":"Point","coordinates":[-74.17147724299997,4.744624343000055]}},{"type":"Feature","properties":{"id":"55","name":"BOQUERÓN I","sector":"San Roque - La Paz","direction":"Occidente – Oriente // Oriente – Occidente","operator":"COVIANDINA S.A.S.","rate_I":16500.0,"rate_II":48500.0,"rate_III":24500.0,"rate_IV":64100.0,"rate_V":72300.0,"rate_VI":80300.0,"rate_VII":96200.0},"geometry":{"type":"Point","coordinates":[-74.07339499999995,4.452599000000021]}},{"type":"Feature","properties":{"id":"163","name":"JALISCO","sector":"Sasaima - Albán","direction":"Occidente - Oriente // Oriente - Occidente","operator":"CONCESIÓN PANAMERICANA","rate_I":12400.0,"rate_II":16800.0,"rate_III":14100.0,"rate_IV":19600.0,"rate_V":35300.0,"rate_VI":45700.0,"rate_VII":55000.0},"geometry":{"type":"Point","coordinates":[-74.42616786599996,4.901355703000036]}},{"type":"Feature","properties":{"id":"173","name":"SAN MIGUEL","sector":"Fusagasugá - Sibaté","direction":"","operator":"","rate_I":7900.0,"rate_II":9800.0,"rate_III":26100.0,"rate_IV":44900.0,"rate_V":47800.0,"rate_VI":0.0,"rate_VII":0.0},"geometry":{"type":"Point","coordinates":[-74.30188939099997,4.444164659000023]}},{"type":"Feature","properties":{"id":"35","name":"NUEVO SALTO","sector":"El Colegio - El Charquito","direction":"Aplica en ambos sentidos","operator":"Concesión Troncal del Tequendama.","rate_I":11700.0,"rate_II":14200.0,"rate_III":14300.0,"rate_IV":16700.0,"rate_V":32100.0,"rate_VI":49500.0,"rate_VII":53700.0},"geometry":{"type":"Point","coordinates":[-74.29866118599995,4.581542020000029]}},{"type":"Feature","properties":{"id":"36","name":"SAN PEDRO","sector":"La Mesa - Anapoima","direction":"Norte - Sur // Sur - Norte","operator":"CONCESIÓN DEVISAB","rate_I":10500.0,"rate_II":11700.0,"rate_III":13500.0,"rate_IV":18200.0,"rate_V":39200.0,"rate_VI":51000.0,"rate_VII":58900.0},"geometry":{"type":"Point","coordinates":[-74.47617448699998,4.580988633000061]}},{"type":"Feature","properties":{"id":"167","name":"MONDOÑEDO","sector":"La Mesa - Mosquera","direction":"Norte - Sur // Sur Norte","operator":"CONCESIÓN DEVISAB","rate_I":11200.0,"rate_II":13500.0,"rate_III":13500.0,"rate_IV":15600.0,"rate_V":44800.0,"rate_VI":61600.0,"rate_VII":70300.0},"geometry":{"type":"Point","coordinates":[-74.29398252399994,4.638241525000069]}},{"type":"Feature","properties":{"id":"172","name":"RAMAL","sector":"Variante Soacha - La Mesa","direction":"Occidente - Oriente // Oriente - Occidente","operator":"CONCESIÓN DEVISAB","rate_I":11200.0,"rate_II":13500.0,"rate_III":13500.0,"rate_IV":15600.0,"rate_V":44800.0,"rate_VI":61600.0,"rate_VII":70300.0},"geometry":{"type":"Point","coordinates":[-74.28980913199996,4.627165433000073]}},{"type":"Feature","properties":{"id":"58","name":"PIPIRAL","sector":"Bogotá (El Portal) - Villavicencio","direction":"Occidente","operator":"COVIANDINA S.A.S.","rate_I":23000.0,"rate_II":45100.0,"rate_III":30900.0,"rate_IV":53900.0,"rate_V":58800.0,"rate_VI":89900.0,"rate_VII":116200.0},"geometry":{"type":"Point","coordinates":[-73.72141999999997,4.200048000000038]}},{"type":"Feature","properties":{"id":"60","name":"CASETABLA","sector":"Armenia - La Línea","direction":"Oriente","operator":"Concesión Autopistas de los Llanos","rate_I":6900.0,"rate_II":7400.0,"rate_III":8200.0,"rate_IV":8200.0,"rate_V":30400.0,"rate_VI":37600.0,"rate_VII":42400.0},"geometry":{"type":"Point","coordinates":[-72.83501399999994,4.112715000000037]}},{"type":"Feature","properties":{"id":"101","name":"FUSCA","sector":"Bogotá - Ubaté","direction":"Sur – Norte Aplica Únicamente saliendo de Bogotá","operator":"CONCESIÓN ACCENORTE","rate_I":11100.0,"rate_II":19200.0,"rate_III":12500.0,"rate_IV":27800.0,"rate_V":42100.0,"rate_VI":54000.0,"rate_VII":59900.0},"geometry":{"type":"Point","coordinates":[-74.02893099999994,4.835358000000042]}},{"type":"Feature","properties":{"id":"93","name":"CAIQUEROS","sector":"Cauyá - La Felisa","direction":"Ambos sentidos de circulación","operator":"CONCESIÓN SABANA DE OCCIDENTE","rate_I":12800.0,"rate_II":16600.0,"rate_III":40800.0,"rate_IV":49200.0,"rate_V":56500.0,"rate_VI":0.0,"rate_VII":0.0},"geometry":{"type":"Point","coordinates":[-74.41410799999994,5.06536600000004]}},{"type":"Feature","properties":{"id":"80","name":"UNISABANA","sector":"Bogotá - Ubaté","direction":"Sur – Norte","operator":"CONCESIÓN  ACCENORTE","rate_I":0.0,"rate_II":0.0,"rate_III":0.0,"rate_IV":0.0,"rate_V":42100.0,"rate_VI":54000.0,"rate_VII":59900.0},"geometry":{"type":"Point","coordinates":[-74.03146399999997,4.855403000000024]}},{"type":"Feature","properties":{"id":"61","name":"YUCAO","sector":"Puerto López - Puerto Gaitán","direction":"Oriente","operator":"Concesión Autopistas de los Llanos","rate_I":6900.0,"rate_II":7400.0,"rate_III":8200.0,"rate_IV":8200.0,"rate_V":30400.0,"rate_VI":37600.0,"rate_VII":42400.0},"geometry":{"type":"Point","coordinates":[-72.16925299999997,4.351317000000051]}},{"type":"Feature","properties":{"id":"65","name":"LOS CAUCHOS","sector":"Garzón - Neiva","direction":"Aplica en ambos sentidos de circulación","operator":"Concesión Rodovias Colombia S.A.S","rate_I":9200.0,"rate_II":10000.0,"rate_III":21300.0,"rate_IV":27100.0,"rate_V":30500.0,"rate_VI":0.0,"rate_VII":0.0},"geometry":{"type":"Point","coordinates":[-75.30195599999996,2.7855780000000436]}},{"type":"Feature","properties":{"id":"66","name":"NEIVA","sector":"Neiva - Natagaima","direction":"Aplica en ambos sentidos de circulación","operator":"Concesión Autovía Neiva – Girardot","rate_I":15700.0,"rate_II":19400.0,"rate_III":23900.0,"rate_IV":30300.0,"rate_V":46300.0,"rate_VI":58000.0,"rate_VII":67100.0},"geometry":{"type":"Point","coordinates":[-75.30725899999999,2.977802000000054]}},{"type":"Feature","properties":{"id":"119","name":"OCOA","sector":"Ye de Granada - Paso por el Puente sobre el Río Ocoa","direction":"Sur","operator":"Concesión Autopistas de Los Llanos","rate_I":13100.0,"rate_II":25300.0,"rate_III":19200.0,"rate_IV":33100.0,"rate_V":48800.0,"rate_VI":64500.0,"rate_VII":70100.0},"geometry":{"type":"Point","coordinates":[-73.77519199999995,4.026259000000039]}},{"type":"Feature","properties":{"id":"97","name":"EL KORÁN","sector":"El Korán - Guaduas","direction":"Sur – Norte Variante Guaduas - Intersección Koran","operator":"INVIAS","rate_I":18900.0,"rate_II":26400.0,"rate_III":37100.0,"rate_IV":77200.0,"rate_V":95800.0,"rate_VI":113600.0,"rate_VII":0.0},"geometry":{"type":"Point","coordinates":[-74.61372959099998,5.497131704000026]}},{"type":"Feature","properties":{"id":"98","name":"LOS PATIOS","sector":"Bogotá (Los Patios) - Guasca","direction":"Sur – Norte","operator":"INVIAS – VIPSA","rate_I":12300.0,"rate_II":19200.0,"rate_III":29600.0,"rate_IV":43300.0,"rate_V":59300.0,"rate_VI":59700.0,"rate_VII":0.0},"geometry":{"type":"Point","coordinates":[-74.01057999999995,4.663374000000033]}},{"type":"Feature","properties":{"id":"99","name":"LA CABAÑA","sector":"Bogotá (Los Patios) - Guasca","direction":"Norte – Sur","operator":"PERIMETRAL ORIENTAL DE BOGOTÁ S.A.S","rate_I":12300.0,"rate_II":19200.0,"rate_III":29600.0,"rate_IV":43300.0,"rate_V":59300.0,"rate_VI":59700.0,"rate_VII":0.0},"geometry":{"type":"Point","coordinates":[-73.94558699999999,4.809454000000073]}},{"type":"Feature","properties":{"id":"68","name":"FLANDES","sector":"El Espinal - Girardot","direction":"Aplica en ambos sentidos de circulación","operator":"Concesión Autovía Neiva - Girardot","rate_I":15700.0,"rate_II":19400.0,"rate_III":23900.0,"rate_IV":30300.0,"rate_V":46300.0,"rate_VI":58000.0,"rate_VII":67100.0},"geometry":{"type":"Point","coordinates":[-74.86115299999994,4.1920990000000415]}},{"type":"Feature","properties":{"id":"121","name":"VERACRUZ","sector":"Cumaral - Barranca de Upía","direction":"Bidireccional","operator":"Concesión Vial del Oriente - COVIORIENTE S.A.S","rate_I":8600.0,"rate_II":17200.0,"rate_III":11100.0,"rate_IV":17200.0,"rate_V":24600.0,"rate_VI":33000.0,"rate_VII":36900.0},"geometry":{"type":"Point","coordinates":[-73.44818899999996,4.261088000000029]}},{"type":"Feature","properties":{"id":"102","name":"EL ROBLE","sector":"Bogotá - Chocontá","direction":"Sur – Norte // Norte – Sur","operator":"CONCESIÓN BRICEÑO – TUNJA – SOGAMOSO","rate_I":10300.0,"rate_II":11400.0,"rate_III":29300.0,"rate_IV":36200.0,"rate_V":42600.0,"rate_VI":0.0,"rate_VII":0.0},"geometry":{"type":"Point","coordinates":[-73.83988199999999,5.031285000000025]}},{"type":"Feature","properties":{"id":"64","name":"ALTAMIRA","sector":"Planeta Rica - La Ye","direction":"Aplica en ambos sentidos de circulación","operator":"Concesión Rodovias Colombia S.A.S","rate_I":10700.0,"rate_II":12000.0,"rate_III":24600.0,"rate_IV":31300.0,"rate_V":35400.0,"rate_VI":0.0,"rate_VII":0.0},"geometry":{"type":"Point","coordinates":[-75.70068399999997,2.1428850000000352]}},{"type":"Feature","properties":{"id":"54","name":"CHUSACÁ","sector":"Girardot - Silvania - Bogotá (Bosa)","direction":"Sur - Norte // Norte - Sur","operator":"Concesión  Vía 40 Express","rate_I":13300.0,"rate_II":14900.0,"rate_III":31500.0,"rate_IV":51100.0,"rate_V":58600.0,"rate_VI":0.0,"rate_VII":0.0},"geometry":{"type":"Point","coordinates":[-74.27180499999997,4.53745200000003]}},{"type":"Feature","properties":{"id":"51","name":"GUALANDAY","sector":"Ibague (Puente Blanco) - Cruce Ruta 45 (Espinal)","direction":"Aplica en ambos sentidos de circulación","operator":"Concesionaria San Rafael S.A.","rate_I":12700.0,"rate_II":14900.0,"rate_III":35000.0,"rate_IV":47000.0,"rate_V":51700.0,"rate_VI":0.0,"rate_VII":0.0},"geometry":{"type":"Point","coordinates":[-75.05008699999996,4.300426000000073]}},{"type":"Feature","properties":{"id":"104","name":"TUTA","sector":"Tunja - Duitama","direction":"Ambos sentidos de circulación","operator":"Concesión Briceño - Tunja - Sogamoso","rate_I":10300.0,"rate_II":11400.0,"rate_III":29300.0,"rate_IV":36200.0,"rate_V":42600.0,"rate_VI":0.0,"rate_VII":0.0},"geometry":{"type":"Point","coordinates":[-73.27843499999994,5.656912000000034]}},{"type":"Feature","properties":{"id":"107","name":"MACHETÁ","sector":"Brisas - Guateque","direction":"Ambos sentidos de circulación","operator":"CONCESIÓN DEL SISGA S.A.S.","rate_I":16900.0,"rate_II":20500.0,"rate_III":11800.0,"rate_IV":11800.0,"rate_V":24700.0,"rate_VI":63600.0,"rate_VII":73700.0},"geometry":{"type":"Point","coordinates":[-73.55339799999996,5.077249000000052]}}]}